IRIDIUM 7 [-]           
1 24793U 97020B   24057.95176223  .00000666  00000+0  22675-3 0  9998
2 24793  86.3997  16.3864 0001935  88.5441 271.5977 14.35094780403573
IRIDIUM 5 [-]           
1 24795U 97020D   24057.71629235  .00005354  00000+0  52159-3 0  9999
2 24795  86.3921 301.8583 0126447  38.8718 322.1515 14.86375437414506
IRIDIUM 4 [-]           
1 24796U 97020E   24057.96025758  .00000783  00000+0  26293-3 0  9998
2 24796  86.3998  13.5791 0002120  83.2206 276.9232 14.36008850404100
IRIDIUM 914 [-]         
1 24836U 97030A   24057.94050506  .00000846  00000+0  26347-3 0  9991
2 24836  86.3959  23.5803 0002736  44.5639 315.5779 14.39846100400675
IRIDIUM 16 [-]          
1 24841U 97030F   24057.96202184  .00000777  00000+0  25191-3 0  9999
2 24841  86.4014  45.2612 0002748 136.7198 223.4216 14.37730679398557
IRIDIUM 911 [-]         
1 24842U 97030G   24057.99758365  .00001016  00000+0  27773-3 0  9995
2 24842  86.4442  44.4666 0012266 240.5845 119.4134 14.46319946406207
IRIDIUM 17 [-]          
1 24870U 97034B   24057.58223231  .00000657  00000+0  21598-3 0  9993
2 24870  86.3901  75.0688 0003616 108.8543 251.3046 14.36820918395122
IRIDIUM 920 [-]         
1 24871U 97034C   24058.08740094  .00000730  00000+0  22301-3 0  9996
2 24871  86.3937  55.1786 0010514 202.0895 157.9853 14.40546965398270
